CCSDS_OMM_VERS = 2.0
CREATION_DATE  = 
ORIGINATOR     = 

OBJECT_NAME    = UNKNOWN
OBJECT_ID      = 
CENTER_NAME    = EARTH
REF_FRAME      = TEME
TIME_SYSTEM    = UTC
MEAN_ELEMENT_THEORY = SGP/SGP4

EPOCH          = 2025-12-12T07:24:44.268480
MEAN_MOTION    = 12.96045911
ECCENTRICITY   = .00235579
INCLINATION    = 90.2432
RA_OF_ASC_NODE = 3.0128
ARG_OF_PERICENTER = 33.3240
MEAN_ANOMALY   = 326.9357

EPHEMERIS_TYPE = 0
CLASSIFICATION_TYPE = U
NORAD_CAT_ID   = 270237
ELEMENT_SET_NO = 999
REV_AT_EPOCH   = 27706
BSTAR          = .8091683E-3
MEAN_MOTION_DOT = .238E-5
MEAN_MOTION_DDOT = 0

CCSDS_OMM_VERS = 2.0
CREATION_DATE  = 
ORIGINATOR     = 

OBJECT_NAME    = UNKNOWN
OBJECT_ID      = 
CENTER_NAME    = EARTH
REF_FRAME      = TEME
TIME_SYSTEM    = UTC
MEAN_ELEMENT_THEORY = SGP/SGP4

EPOCH          = 2025-12-28T15:25:17.812992
MEAN_MOTION    = 12.80782031
ECCENTRICITY   = .01153856
INCLINATION    = 63.5228
RA_OF_ASC_NODE = 125.0358
ARG_OF_PERICENTER = 71.5502
MEAN_ANOMALY   = 289.7994

EPHEMERIS_TYPE = 0
CLASSIFICATION_TYPE = U
NORAD_CAT_ID   = 270238
ELEMENT_SET_NO = 999
REV_AT_EPOCH   = 27651
BSTAR          = .58326084E-3
MEAN_MOTION_DOT = .63E-6
MEAN_MOTION_DDOT = 0

CCSDS_OMM_VERS = 2.0
CREATION_DATE  = 
ORIGINATOR     = 

OBJECT_NAME    = UNKNOWN
OBJECT_ID      = 
CENTER_NAME    = EARTH
REF_FRAME      = TEME
TIME_SYSTEM    = UTC
MEAN_ELEMENT_THEORY = SGP/SGP4

EPOCH          = 2025-12-28T14:47:55.855680
MEAN_MOTION    = 12.27350450
ECCENTRICITY   = .01881204
INCLINATION    = 82.4420
RA_OF_ASC_NODE = 319.7959
ARG_OF_PERICENTER = 327.1054
MEAN_ANOMALY   = 31.8421

EPHEMERIS_TYPE = 0
CLASSIFICATION_TYPE = U
NORAD_CAT_ID   = 270239
ELEMENT_SET_NO = 999
REV_AT_EPOCH   = 26399
BSTAR          = .20765487E-1
MEAN_MOTION_DOT = .2505E-4
MEAN_MOTION_DDOT = 0

CCSDS_OMM_VERS = 2.0
CREATION_DATE  = 
ORIGINATOR     = 

OBJECT_NAME    = UNKNOWN
OBJECT_ID      = 
CENTER_NAME    = EARTH
REF_FRAME      = TEME
TIME_SYSTEM    = UTC
MEAN_ELEMENT_THEORY = SGP/SGP4

EPOCH          = 2025-12-29T22:41:31.629408
MEAN_MOTION    = 12.63683875
ECCENTRICITY   = .01081875
INCLINATION    = 82.4305
RA_OF_ASC_NODE = 234.3309
ARG_OF_PERICENTER = 241.8079
MEAN_ANOMALY   = 117.2052

EPHEMERIS_TYPE = 0
CLASSIFICATION_TYPE = U
NORAD_CAT_ID   = 270240
ELEMENT_SET_NO = 999
REV_AT_EPOCH   = 27060
BSTAR          = -.43079003E-2
MEAN_MOTION_DOT = -.793E-5
MEAN_MOTION_DDOT = 0

CCSDS_OMM_VERS = 2.0
CREATION_DATE  = 
ORIGINATOR     = 

OBJECT_NAME    = UNKNOWN
OBJECT_ID      = 
CENTER_NAME    = EARTH
REF_FRAME      = TEME
TIME_SYSTEM    = UTC
MEAN_ELEMENT_THEORY = SGP/SGP4

EPOCH          = 2025-12-14T08:05:10.035744
MEAN_MOTION    = 12.94285920
ECCENTRICITY   = .00306176
INCLINATION    = 90.2440
RA_OF_ASC_NODE = 2.1639
ARG_OF_PERICENTER = 18.9048
MEAN_ANOMALY   = 341.3200

EPHEMERIS_TYPE = 0
CLASSIFICATION_TYPE = U
NORAD_CAT_ID   = 270241
ELEMENT_SET_NO = 999
REV_AT_EPOCH   = 27679
BSTAR          = .17459733E-2
MEAN_MOTION_DOT = .493E-5
MEAN_MOTION_DDOT = 0

CCSDS_OMM_VERS = 2.0
CREATION_DATE  = 
ORIGINATOR     = 

OBJECT_NAME    = UNKNOWN
OBJECT_ID      = 
CENTER_NAME    = EARTH
REF_FRAME      = TEME
TIME_SYSTEM    = UTC
MEAN_ELEMENT_THEORY = SGP/SGP4

EPOCH          = 2025-12-30T06:08:30.742368
MEAN_MOTION    = 12.98534519
ECCENTRICITY   = .00455891
INCLINATION    = 90.2365
RA_OF_ASC_NODE = 3.7524
ARG_OF_PERICENTER = 92.1883
MEAN_ANOMALY   = 268.4459

EPHEMERIS_TYPE = 0
CLASSIFICATION_TYPE = U
NORAD_CAT_ID   = 270242
ELEMENT_SET_NO = 999
REV_AT_EPOCH   = 27952
BSTAR          = -.45495673E-3
MEAN_MOTION_DOT = -.127E-5
MEAN_MOTION_DDOT = 0

CCSDS_OMM_VERS = 2.0
CREATION_DATE  = 
ORIGINATOR     = 

OBJECT_NAME    = UNKNOWN
OBJECT_ID      = 
CENTER_NAME    = EARTH
REF_FRAME      = TEME
TIME_SYSTEM    = UTC
MEAN_ELEMENT_THEORY = SGP/SGP4

EPOCH          = 2025-12-20T21:18:49.548672
MEAN_MOTION    = 13.90782021
ECCENTRICITY   = .03308255
INCLINATION    = 98.3067
RA_OF_ASC_NODE = 218.7880
ARG_OF_PERICENTER = 55.6834
MEAN_ANOMALY   = 307.5172

EPHEMERIS_TYPE = 0
CLASSIFICATION_TYPE = U
NORAD_CAT_ID   = 270243
ELEMENT_SET_NO = 999
REV_AT_EPOCH   = 3825
BSTAR          = .13775912E-2
MEAN_MOTION_DOT = .2649E-4
MEAN_MOTION_DDOT = 0

CCSDS_OMM_VERS = 2.0
CREATION_DATE  = 
ORIGINATOR     = 

OBJECT_NAME    = UNKNOWN
OBJECT_ID      = 
CENTER_NAME    = EARTH
REF_FRAME      = TEME
TIME_SYSTEM    = UTC
MEAN_ELEMENT_THEORY = SGP/SGP4

EPOCH          = 2025-12-09T11:10:24.130848
MEAN_MOTION    = 10.71467810
ECCENTRICITY   = .09962545
INCLINATION    = 101.9029
RA_OF_ASC_NODE = 264.1420
ARG_OF_PERICENTER = 244.4375
MEAN_ANOMALY   = 105.0393

EPHEMERIS_TYPE = 0
CLASSIFICATION_TYPE = U
NORAD_CAT_ID   = 270246
ELEMENT_SET_NO = 999
REV_AT_EPOCH   = 22941
BSTAR          = -.22107288E-1
MEAN_MOTION_DOT = -.1023E-4
MEAN_MOTION_DDOT = 0

CCSDS_OMM_VERS = 2.0
CREATION_DATE  = 
ORIGINATOR     = 

OBJECT_NAME    = UNKNOWN
OBJECT_ID      = 
CENTER_NAME    = EARTH
REF_FRAME      = TEME
TIME_SYSTEM    = UTC
MEAN_ELEMENT_THEORY = SGP/SGP4

EPOCH          = 2025-12-27T13:26:56.691168
MEAN_MOTION    = 12.78801340
ECCENTRICITY   = .00667641
INCLINATION    = 66.0655
RA_OF_ASC_NODE = 297.5451
ARG_OF_PERICENTER = 15.0771
MEAN_ANOMALY   = 345.2213

EPHEMERIS_TYPE = 0
CLASSIFICATION_TYPE = U
NORAD_CAT_ID   = 270247
ELEMENT_SET_NO = 999
REV_AT_EPOCH   = 27394
BSTAR          = .20134587E-2
MEAN_MOTION_DOT = .394E-5
MEAN_MOTION_DDOT = 0

CCSDS_OMM_VERS = 2.0
CREATION_DATE  = 
ORIGINATOR     = 

OBJECT_NAME    = UNKNOWN
OBJECT_ID      = 
CENTER_NAME    = EARTH
REF_FRAME      = TEME
TIME_SYSTEM    = UTC
MEAN_ELEMENT_THEORY = SGP/SGP4

EPOCH          = 2025-12-23T14:51:55.537920
MEAN_MOTION    = 12.25478434
ECCENTRICITY   = .00176979
INCLINATION    = 82.4679
RA_OF_ASC_NODE = 327.2312
ARG_OF_PERICENTER = 12.0709
MEAN_ANOMALY   = 348.0781

EPHEMERIS_TYPE = 0
CLASSIFICATION_TYPE = U
NORAD_CAT_ID   = 270248
ELEMENT_SET_NO = 999
REV_AT_EPOCH   = 26093
BSTAR          = .73776666E-2
MEAN_MOTION_DOT = .827E-5
MEAN_MOTION_DDOT = 0

CCSDS_OMM_VERS = 2.0
CREATION_DATE  = 
ORIGINATOR     = 

OBJECT_NAME    = UNKNOWN
OBJECT_ID      = 
CENTER_NAME    = EARTH
REF_FRAME      = TEME
TIME_SYSTEM    = UTC
MEAN_ELEMENT_THEORY = SGP/SGP4

EPOCH          = 2025-12-23T18:30:11.433888
MEAN_MOTION    = 12.95388678
ECCENTRICITY   = .00275043
INCLINATION    = 90.2363
RA_OF_ASC_NODE = 2.6251
ARG_OF_PERICENTER = 301.5040
MEAN_ANOMALY   = 58.3393

EPHEMERIS_TYPE = 0
CLASSIFICATION_TYPE = U
NORAD_CAT_ID   = 270249
ELEMENT_SET_NO = 999
REV_AT_EPOCH   = 27587
BSTAR          = .13743367E-2
MEAN_MOTION_DOT = .395E-5
MEAN_MOTION_DDOT = 0

CCSDS_OMM_VERS = 2.0
CREATION_DATE  = 
ORIGINATOR     = 

OBJECT_NAME    = UNKNOWN
OBJECT_ID      = 
CENTER_NAME    = EARTH
REF_FRAME      = TEME
TIME_SYSTEM    = UTC
MEAN_ELEMENT_THEORY = SGP/SGP4

EPOCH          = 2025-12-30T08:28:29.790912
MEAN_MOTION    = 12.59663822
ECCENTRICITY   = .01984806
INCLINATION    = 82.4458
RA_OF_ASC_NODE = 240.9626
ARG_OF_PERICENTER = 279.1687
MEAN_ANOMALY   = 78.6998

EPHEMERIS_TYPE = 0
CLASSIFICATION_TYPE = U
NORAD_CAT_ID   = 270250
ELEMENT_SET_NO = 999
REV_AT_EPOCH   = 26764
BSTAR          = .90945428E-2
MEAN_MOTION_DOT = .1701E-4
MEAN_MOTION_DDOT = 0

CCSDS_OMM_VERS = 2.0
CREATION_DATE  = 
ORIGINATOR     = 

OBJECT_NAME    = UNKNOWN
OBJECT_ID      = 
CENTER_NAME    = EARTH
REF_FRAME      = TEME
TIME_SYSTEM    = UTC
MEAN_ELEMENT_THEORY = SGP/SGP4

EPOCH          = 2025-12-23T13:01:50.141280
MEAN_MOTION    = 11.48461212
ECCENTRICITY   = .06511827
INCLINATION    = 102.3204
RA_OF_ASC_NODE = 283.6655
ARG_OF_PERICENTER = 147.2735
MEAN_ANOMALY   = 217.0409

EPHEMERIS_TYPE = 0
CLASSIFICATION_TYPE = U
NORAD_CAT_ID   = 270251
ELEMENT_SET_NO = 999
REV_AT_EPOCH   = 24466
BSTAR          = .42453861E-1
MEAN_MOTION_DOT = .303E-4
MEAN_MOTION_DDOT = 0

CCSDS_OMM_VERS = 2.0
CREATION_DATE  = 
ORIGINATOR     = 

OBJECT_NAME    = UNKNOWN
OBJECT_ID      = 
CENTER_NAME    = EARTH
REF_FRAME      = TEME
TIME_SYSTEM    = UTC
MEAN_ELEMENT_THEORY = SGP/SGP4

EPOCH          = 2025-12-13T23:46:37.247232
MEAN_MOTION    = 12.62397058
ECCENTRICITY   = .00003197
INCLINATION    = 51.9815
RA_OF_ASC_NODE = 79.4516
ARG_OF_PERICENTER = 138.9512
MEAN_ANOMALY   = 221.1378

EPHEMERIS_TYPE = 0
CLASSIFICATION_TYPE = U
NORAD_CAT_ID   = 270252
ELEMENT_SET_NO = 999
REV_AT_EPOCH   = 26915
BSTAR          = .25078454E-3
MEAN_MOTION_DOT = -.59E-6
MEAN_MOTION_DDOT = 0

CCSDS_OMM_VERS = 2.0
CREATION_DATE  = 
ORIGINATOR     = 

OBJECT_NAME    = UNKNOWN
OBJECT_ID      = 
CENTER_NAME    = EARTH
REF_FRAME      = TEME
TIME_SYSTEM    = UTC
MEAN_ELEMENT_THEORY = SGP/SGP4

EPOCH          = 2025-12-22T18:46:28.205760
MEAN_MOTION    = 13.00229007
ECCENTRICITY   = .00333579
INCLINATION    = 90.2413
RA_OF_ASC_NODE = 2.8989
ARG_OF_PERICENTER = 341.0734
MEAN_ANOMALY   = 18.9146

EPHEMERIS_TYPE = 0
CLASSIFICATION_TYPE = U
NORAD_CAT_ID   = 270253
ELEMENT_SET_NO = 999
REV_AT_EPOCH   = 27652
BSTAR          = .42254882E-2
MEAN_MOTION_DOT = .1286E-4
MEAN_MOTION_DDOT = 0

CCSDS_OMM_VERS = 2.0
CREATION_DATE  = 
ORIGINATOR     = 

OBJECT_NAME    = UNKNOWN
OBJECT_ID      = 
CENTER_NAME    = EARTH
REF_FRAME      = TEME
TIME_SYSTEM    = UTC
MEAN_ELEMENT_THEORY = SGP/SGP4

EPOCH          = 2025-12-28T17:29:39.916608
MEAN_MOTION    = 12.93260456
ECCENTRICITY   = .00341527
INCLINATION    = 90.2436
RA_OF_ASC_NODE = 3.7768
ARG_OF_PERICENTER = 1.7642
MEAN_ANOMALY   = 358.3591

EPHEMERIS_TYPE = 0
CLASSIFICATION_TYPE = U
NORAD_CAT_ID   = 270256
ELEMENT_SET_NO = 999
REV_AT_EPOCH   = 27698
BSTAR          = .39751463E-3
MEAN_MOTION_DOT = .116E-5
MEAN_MOTION_DDOT = 0

